SKYSAT-A                
1 39418U 13066C   26121.09738167  .00003665  00000+0  21169-3 0  9995
2 39418  97.3855 171.9943 0023111 115.8404 244.5215 15.12699143681367
SKYSAT-B                
1 40072U 14037D   26121.45595748  .00001676  00000+0  18967-3 0  9990
2 40072  98.3805  77.7722 0006950  73.5918 286.6060 14.87903511639019
SKYSAT-C1               
1 41601U 16040C   26121.37232802  .00012347  00000+0  35971-3 0  9996
2 41601  96.9603 155.6471 0003019 153.1066 207.0336 15.35510540550685
SKYSAT-C4               
1 41771U 16058B   26121.52614997  .00019691  00000+0  38929-3 0  9994
2 41771  96.9204 145.2938 0003432  89.0621 271.1023 15.47142877538257
SKYSAT-C5               
1 41772U 16058C   26121.07548794  .00009264  00000+0  28563-3 0  9994
2 41772  97.0514 163.8305 0004996 100.6160 259.5646 15.33786534536520
SKYSAT-C2               
1 41773U 16058D   26121.52151203  .00014022  00000+0  34154-3 0  9991
2 41773  97.0201 145.4019 0002781 179.3275 180.7977 15.41018092537868
SKYSAT-C3               
1 41774U 16058E   26121.51312828  .00024948  00000+0  43642-3 0  9993
2 41774  96.9075 154.2046 0002794 101.9516 258.2051 15.50611831538873
SKYSAT-C11              
1 42987U 17068A   26121.38791368  .00038994  00000+0  57052-3 0  9993
2 42987  97.4295 268.2873 0001493 132.8430 227.2950 15.55507824475962
SKYSAT-C10              
1 42988U 17068B   26121.33251885  .00013390  00000+0  41154-3 0  9993
2 42988  97.4437 257.7722 0001676 106.4072 253.7354 15.33820587475174
SKYSAT-C9               
1 42989U 17068C   26121.35464995  .00017882  00000+0  44333-3 0  9996
2 42989  97.4361 258.2942 0007361 309.7925  50.2672 15.40417838475546
SKYSAT-C8               
1 42990U 17068D   26121.37328126  .00015392  00000+0  44041-3 0  9995
2 42990  97.4451 257.4385 0001257 111.4844 248.6533 15.36047388475123
SKYSAT-C7               
1 42991U 17068E   26121.36512801  .00015340  00000+0  43966-3 0  9998
2 42991  97.4466 258.4171 0004654 272.9166  87.1545 15.35987052475183
SKYSAT-C6               
1 42992U 17068F   26121.37482485  .00013988  00000+0  43226-3 0  9999
2 42992  97.4500 258.5517 0001416 341.1826  18.9364 15.33638050475149
SKYSAT-C12              
1 43797U 18099AR  26121.49111137  .00019996  00000+0  39153-3 0  9993
2 43797  96.9293 146.6503 0002697 356.9573   3.1661 15.47421509414630
SKYSAT-C13              
1 43802U 18099AW  26121.40274108  .00215225  00000+0  73754-3 0  9997
2 43802  96.9246 169.5532 0002121  95.8001 264.3515 15.89158417415505
FLOCK 4Q-16             
1 58271U 23174R   26121.50295906  .00025254  00000+0  49642-3 0  9993
2 58271  97.3832 208.6060 0004867 339.2321  20.8730 15.47263915138350
FLOCK 4Q-11             
1 58273U 23174T   26121.49582270  .00029131  00000+0  56313-3 0  9997
2 58273  97.3875 209.1437 0004616 335.4604  24.6425 15.47721390138367
FLOCK 4Q-36             
1 58274U 23174U   26121.19133699  .00048758  00000+0  73372-3 0  9992
2 58274  97.3853 211.9930 0005292 305.4273  54.6487 15.54675689138529
FLOCK 4Q-28             
1 58280U 23174AA  26121.54385013  .00032783  00000+0  54070-3 0  9992
2 58280  97.3884 211.3132 0003661 313.0147  47.0798 15.52222590138507
FLOCK 4Q-27             
1 58282U 23174AC  26121.54225153  .00034915  00000+0  57776-3 0  9997
2 58282  97.3816 210.7989 0003522 313.5105  46.5854 15.52118331138517
FLOCK 4Q-26             
1 58284U 23174AE  26121.19144052  .00044162  00000+0  67440-3 0  9992
2 58284  97.3875 212.0729 0004676 318.4599  41.6298 15.54295760138526
FLOCK 4Q-31             
1 58285U 23174AF  26121.16477743  .00049033  00000+0  74816-3 0  9993
2 58285  97.3914 211.6998 0004626 314.1785  45.9088 15.54296604138475
FLOCK 4Q-30             
1 58286U 23174AG  26120.69518609  .00032355  00000+0  49263-3 0  9995
2 58286  97.3932 211.4265 0003085 314.2850  45.8151 15.54447827138412
PELICAN-1               
1 58296U 23174AS  26121.10304595  .00103745  00000+0  78278-3 0  9990
2 58296  97.3992 218.5394 0002606 120.5839 239.5682 15.72158997138769
FLOCK 4Q-29             
1 58304U 23174BA  26121.47838494  .00042371  00000+0  68081-3 0  9998
2 58304  97.3930 211.7113 0003985 301.1862  58.9000 15.52898978138506
FLOCK 4Q-22             
1 58306U 23174BC  26121.46582933  .00054448  00000+0  77314-3 0  9990
2 58306  97.3821 212.0492 0003196 295.3246  64.7677 15.56246305138594
FLOCK 4Q-33             
1 58308U 23174BE  26121.16932281  .00044039  00000+0  66025-3 0  9996
2 58308  97.3858 211.6133 0004283 295.2531  64.8279 15.54805164138521
FLOCK 4Q-35             
1 58309U 23174BF  26121.51423817  .00038585  00000+0  60061-3 0  9999
2 58309  97.3877 212.0627 0004204 311.2808  48.8083 15.53798228138554
FLOCK 4Q-7              
1 58318U 23174BQ  26120.81233203  .00032725  00000+0  53229-3 0  9997
2 58318  97.3917 210.8029 0005052 302.6183  57.4581 15.52604893138397
FLOCK 4Q-2              
1 58320U 23174BS  26121.54290878  .00029631  00000+0  57482-3 0  9999
2 58320  97.3831 208.9518 0004410 305.8200  54.2639 15.47617232138381
FLOCK 4Q-9              
1 58322U 23174BU  26121.50567181  .00030488  00000+0  59294-3 0  9996
2 58322  97.3872 208.9640 0004510 305.4984  54.5845 15.47538067138368
FLOCK 4Q-4              
1 58327U 23174BZ  26121.13949938  .00031187  00000+0  62432-3 0  9999
2 58327  97.3829 207.8851 0004624 340.9775  19.1301 15.46693370138288
FLOCK 4Q-13             
1 58328U 23174CA  26121.14171376  .00032917  00000+0  59443-3 0  9994
2 58328  97.4004 210.6574 0004970 326.3569  33.7366 15.49652235138384
FLOCK 4BE-18            
1 60480U 24149N   26121.19990135  .00024216  00000+0  60073-3 0  9990
2 60480  97.3734 204.4941 0004758  79.8969 280.2814 15.40351272 95075
FLOCK 4BE-7             
1 60481U 24149P   26121.21895797  .00033149  00000+0  87461-3 0  9997
2 60481  97.3765 203.9593 0004003  86.6137 273.5566 15.38401678 95020
FLOCK 4BE-26            
1 60484U 24149S   26121.48950396  .00209626  00000+0  28488-2 0  9994
2 60484  97.3681 205.5706 0001592 138.7895 221.3481 15.56876029 95173
FLOCK 4BE-36            
1 60486U 24149U   26121.45806185  .00024412  00000+0  58760-3 0  9994
2 60486  97.3743 205.3807 0004913  87.8296 272.3513 15.41265226 95158
FLOCK 4BE-25            
1 60487U 24149V   26121.50973296  .00019259  00000+0  52288-3 0  9991
2 60487  97.3804 204.3880 0003498  86.6118 273.5527 15.37629459 95069
FLOCK 4BE-31            
1 60488U 24149W   26121.20093633  .00027951  00000+0  64926-3 0  9997
2 60488  97.3804 205.8576 0003919  92.8468 267.3228 15.42316023 95136
FLOCK 4BE-20            
1 60489U 24149X   26121.18907324  .00020422  00000+0  56846-3 0  9994
2 60489  97.3705 203.0645 0005044  86.8775 273.3046 15.36834953 94997
FLOCK 4BE-23            
1 60490U 24149Y   26121.49374755  .00021093  00000+0  59374-3 0  9990
2 60490  97.3785 203.7202 0004948  92.5938 267.5873 15.36479636 95021
FLOCK 4BE-15            
1 60491U 24149Z   26121.49179964  .00152886  00000+0  26837-2 0  9998
2 60491  97.3713 205.4769 0005000 163.0501 197.0918 15.49964560 95172
FLOCK 4BE-17            
1 60492U 24149AA  26121.47406485  .00021193  00000+0  56041-3 0  9995
2 60492  97.3781 204.5249 0004257  84.9212 275.2519 15.38422466 95071
FLOCK 4BE-22            
1 60494U 24149AC  26121.17176539  .00023381  00000+0  59184-3 0  9990
2 60494  97.3740 204.3408 0004908  90.6527 269.5281 15.39741644 95063
FLOCK 4BE-34            
1 60495U 24149AD  26121.18972228  .00022660  00000+0  57247-3 0  9998
2 60495  97.3783 205.1497 0005201  98.0747 262.1089 15.39806518 95091
FLOCK 4BE-32            
1 60497U 24149AF  26121.18487551  .00026230  00000+0  64559-3 0  9991
2 60497  97.3727 204.6640 0005125  95.2687 264.9144 15.40572538 95098
FLOCK 4BE-30            
1 60499U 24149AH  26121.48642484  .00131089  00000+0  25766-2 0  9999
2 60499  97.3794 205.8186 0003107 164.4371 195.6974 15.46796963 94534
FLOCK 4BE-11            
1 60501U 24149AK  26121.52979704  .00021269  00000+0  50965-3 0  9994
2 60501  97.3707 205.1953 0005142  93.8886 266.2949 15.41427253 95169
FLOCK 4BE-24            
1 60505U 24149AP  26121.19151576  .00027958  00000+0  67080-3 0  9997
2 60505  97.3722 205.0998 0005225 102.8201 257.3629 15.41332555 95124
TANAGER-1               
1 60507U 24149AR  26120.22224313  .00006915  00000+0  15179-3 0  9994
2 60507  97.3390 214.2484 0007344 114.5412 245.6603 15.44346423 95637
FLOCK 4BE-29            
1 60509U 24149AT  26121.49773378  .00023479  00000+0  54039-3 0  9998
2 60509  97.3809 206.7252 0004242 108.7876 251.3832 15.42624396 95214
FLOCK 4BE-2             
1 60511U 24149AV  26121.19652958  .00067767  00000+0  12849-2 0  9998
2 60511  97.3821 207.3344 0004413 109.0354 251.1374 15.48087203 95221
FLOCK 4BE-13            
1 60512U 24149AW  26121.47461226  .00020646  00000+0  50804-3 0  9995
2 60512  97.3724 205.4477 0005407  86.4340 273.7525 15.40626577 95174
FLOCK 4BE-27            
1 60513U 24149AX  26121.48960285  .00012687  00000+0  39211-3 0  9991
2 60513  97.3833 203.3484 0005568 108.2910 251.8939 15.33639558 94984
FLOCK 4BE-9             
1 60514U 24149AY  26121.17843847  .00022502  00000+0  57642-3 0  9997
2 60514  97.3796 205.0469 0004439 111.0245 249.1476 15.39386818 95086
FLOCK 4BE-6             
1 60516U 24149BA  26121.49724750  .00019908  00000+0  52857-3 0  9994
2 60516  97.3791 204.8099 0005173 107.8355 252.3454 15.38306552 95099
FLOCK 4BE-14            
1 60517U 24149BB  26121.19623940  .00022617  00000+0  57609-3 0  9992
2 60517  97.3703 204.6076 0006071 108.0782 252.1126 15.39550600 95091
FLOCK 4BE-1             
1 60518U 24149BC  26121.19439366  .00023829  00000+0  57779-3 0  9994
2 60518  97.3784 205.7197 0005609 108.0858 252.1000 15.41043901 95137
FLOCK 4BE-28            
1 60519U 24149BD  26121.53704985  .00022365  00000+0  50362-3 0  9990
2 60519  97.3751 206.6487 0005715 103.0767 257.1119 15.43281372 95242
